{"type": "FeatureCollection", "features": [ {"type": "Feature", "properties": {"norad_id": 33867, "name": "IRIDIUM 33 DEB", "group": "iridium-33-debris", "lat": 12.820510505113955, "lon": 163.9294829523475, "alt_km": 279.977098858064, "timestamp": "2025-12-22T20:43:46.233244+00:00", "meta": {"OBJECT_NAME": "IRIDIUM 33 DEB", "OBJECT_ID": "1997-051AL", "EPOCH": "2025-12-22T11:00:02.746368", "MEAN_MOTION": 15.94011051, "ECCENTRICITY": 0.0013656, "INCLINATION": 86.3662, "RA_OF_ASC_NODE": 344.9772, "ARG_OF_PERICENTER": 104.8485, "MEAN_ANOMALY": 255.4311, "EPHEMERIS_TYPE": 0, "CLASSIFICATION_TYPE": "U", "NORAD_CAT_ID": 33867, "ELEMENT_SET_NO": 999, "REV_AT_EPOCH": 89664, "BSTAR": 0.0093592392, "MEAN_MOTION_DOT": 0.03057152, "MEAN_MOTION_DDOT": 0.0088726237}, "tle": {"line1": "1 33867U 97051AL  25356.45836512  .03057152  88726-2  93592-2 0  9990", "line2": "2 33867  86.3662 344.9772 0013656 104.8485 255.4311 15.94011051896648"}}, "geometry": {"type": "Point", "coordinates": [163.9294829523475, 12.820510505113955]}}, {"type": "Feature", "properties": {"norad_id": 33870, "name": "IRIDIUM 33 DEB", "group": "iridium-33-debris", "lat": 68.97444450955419, "lon": 63.41773647301099, "alt_km": 728.7159791349568, "timestamp": "2025-12-22T20:43:46.233255+00:00", "meta": {"OBJECT_NAME": "IRIDIUM 33 DEB", "OBJECT_ID": "1997-051AP", "EPOCH": "2025-12-22T14:22:05.127744", "MEAN_MOTION": 14.45897764, "ECCENTRICITY": 0.00224526, "INCLINATION": 86.3737, "RA_OF_ASC_NODE": 54.0349, "ARG_OF_PERICENTER": 146.7481, "MEAN_ANOMALY": 344.003, "EPHEMERIS_TYPE": 0, "CLASSIFICATION_TYPE": "U", "NORAD_CAT_ID": 33870, "ELEMENT_SET_NO": 999, "REV_AT_EPOCH": 88279, "BSTAR": 0.00065993411, "MEAN_MOTION_DOT": 2.372e-05, "MEAN_MOTION_DDOT": 0}, "tle": {"line1": "1 33870U 97051AP  25356.59867046  .00002372  00000+0  65993-3 0  9997", "line2": "2 33870  86.3737  54.0349 0022452 146.7481 344.0030 14.45897764882791"}}, "geometry": {"type": "Point", "coordinates": [63.41773647301099, 68.97444450955419]}}, {"type": "Feature", "properties": {"norad_id": 33881, "name": "IRIDIUM 33 DEB", "group": "iridium-33-debris", "lat": -29.819345516312527, "lon": 100.26724701108031, "alt_km": 752.7384855415621, "timestamp": "2025-12-22T20:43:46.233266+00:00", "meta": {"OBJECT_NAME": "IRIDIUM 33 DEB", "OBJECT_ID": "1997-051BA", "EPOCH": "2025-12-22T01:53:28.694112", "MEAN_MOTION": 14.56726775, "ECCENTRICITY": 0.00613657, "INCLINATION": 86.3868, "RA_OF_ASC_NODE": 102.6839, "ARG_OF_PERICENTER": 144.447, "MEAN_ANOMALY": 32.1992, "EPHEMERIS_TYPE": 0, "CLASSIFICATION_TYPE": "U", "NORAD_CAT_ID": 33881, "ELEMENT_SET_NO": 999, "REV_AT_EPOCH": 87636, "BSTAR": 0.0020421303, "MEAN_MOTION_DOT": 9.388e-05, "MEAN_MOTION_DDOT": 0}, "tle": {"line1": "1 33881U 97051BA  25356.07880433  .00009388  00000+0  20421-2 0  9997", "line2": "2 33881  86.3868 102.6839 0061365 144.4470  32.1992 14.56726775876364"}}, "geometry": {"type": "Point", "coordinates": [100.26724701108031, -29.819345516312527]}}, {"type": "Feature", "properties": {"norad_id": 33884, "name": "IRIDIUM 33 DEB", "group": "iridium-33-debris", "lat": -43.69018141704485, "lon": 1.76967089116821, "alt_km": 638.3286175016319, "timestamp": "2025-12-22T20:43:46.233276+00:00", "meta": {"OBJECT_NAME": "IRIDIUM 33 DEB", "OBJECT_ID": "1997-051BD", "EPOCH": "2025-12-21T19:42:17.168256", "MEAN_MOTION": 14.77591703, "ECCENTRICITY": 0.00089767, "INCLINATION": 86.3691, "RA_OF_ASC_NODE": 5.7181, "ARG_OF_PERICENTER": 287.8241, "MEAN_ANOMALY": 245.5748, "EPHEMERIS_TYPE": 0, "CLASSIFICATION_TYPE": "U", "NORAD_CAT_ID": 33884, "ELEMENT_SET_NO": 999, "REV_AT_EPOCH": 88981, "BSTAR": 0.0012315655, "MEAN_MOTION_DOT": 8.831e-05, "MEAN_MOTION_DDOT": 0}, "tle": {"line1": "1 33884U 97051BD  25355.82103204  .00008831  00000+0  12316-2 0  9992", "line2": "2 33884  86.3691   5.7181 0008976 287.8241 245.5748 14.77591703889818"}}, "geometry": {"type": "Point", "coordinates": [1.76967089116821, -43.69018141704485]}}, {"type": "Feature", "properties": {"norad_id": 33886, "name": "IRIDIUM 33 DEB", "group": "iridium-33-debris", "lat": 7.0856445286368075, "lon": -117.48320390167673, "alt_km": 765.6941227400193, "timestamp": "2025-12-22T20:43:46.233287+00:00", "meta": {"OBJECT_NAME": "IRIDIUM 33 DEB", "OBJECT_ID": "1997-051BF", "EPOCH": "2025-12-22T11:37:02.008992", "MEAN_MOTION": 14.36062756, "ECCENTRICITY": 0.00131922, "INCLINATION": 86.3822, "RA_OF_ASC_NODE": 63.1272, "ARG_OF_PERICENTER": 206.9179, "MEAN_ANOMALY": 164.3173, "EPHEMERIS_TYPE": 0, "CLASSIFICATION_TYPE": "U", "NORAD_CAT_ID": 33886, "ELEMENT_SET_NO": 999, "REV_AT_EPOCH": 88192, "BSTAR": 0.00017634481, "MEAN_MOTION_DOT": 5.33e-06, "MEAN_MOTION_DDOT": 0}, "tle": {"line1": "1 33886U 97051BF  25356.48405103  .00000533  00000+0  17634-3 0  9990", "line2": "2 33886  86.3822  63.1272 0013192 206.9179 164.3173 14.36062756881923"}}, "geometry": {"type": "Point", "coordinates": [-117.48320390167673, 7.0856445286368075]}}, {"type": "Feature", "properties": {"norad_id": 33887, "name": "IRIDIUM 33 DEB", "group": "iridium-33-debris", "lat": 28.231485475832155, "lon": 177.04033801934764, "alt_km": 763.3056472164271, "timestamp": "2025-12-22T20:43:46.233297+00:00", "meta": {"OBJECT_NAME": "IRIDIUM 33 DEB", "OBJECT_ID": "1997-051BG", "EPOCH": "2025-12-22T12:15:13.500288", "MEAN_MOTION": 14.37229472, "ECCENTRICITY": 0.00054817, "INCLINATION": 86.3042, "RA_OF_ASC_NODE": 359.1812, "ARG_OF_PERICENTER": 188.3321, "MEAN_ANOMALY": 297.2235, "EPHEMERIS_TYPE": 0, "CLASSIFICATION_TYPE": "U", "NORAD_CAT_ID": 33887, "ELEMENT_SET_NO": 999, "REV_AT_EPOCH": 88305, "BSTAR": 0.00013931284, "MEAN_MOTION_DOT": 4.34e-06, "MEAN_MOTION_DDOT": 0}, "tle": {"line1": "1 33887U 97051BG  25356.51057292  .00000434  00000+0  13931-3 0  9993", "line2": "2 33887  86.3042 359.1812 0005481 188.3321 297.2235 14.37229472883052"}}, "geometry": {"type": "Point", "coordinates": [177.04033801934764, 28.231485475832155]}}, {"type": "Feature", "properties": {"norad_id": 33953, "name": "IRIDIUM 33 DEB", "group": "iridium-33-debris", "lat": -52.57775042273243, "lon": 44.64415248494917, "alt_km": 722.2128559705734, "timestamp": "2025-12-22T20:43:46.233310+00:00", "meta": {"OBJECT_NAME": "IRIDIUM 33 DEB", "OBJECT_ID": "1997-051BN", "EPOCH": "2025-12-22T04:44:25.619136", "MEAN_MOTION": 14.55406947, "ECCENTRICITY": 0.00178347, "INCLINATION": 86.3836, "RA_OF_ASC_NODE": 49.6744, "ARG_OF_PERICENTER": 73.9809, "MEAN_ANOMALY": 345.1929, "EPHEMERIS_TYPE": 0, "CLASSIFICATION_TYPE": "U", "NORAD_CAT_ID": 33953, "ELEMENT_SET_NO": 999, "REV_AT_EPOCH": 88441, "BSTAR": 0.0010994661, "MEAN_MOTION_DOT": 4.805e-05, "MEAN_MOTION_DDOT": 0}, "tle": {"line1": "1 33953U 97051BN  25356.19751874  .00004805  00000+0  10995-2 0  9990", "line2": "2 33953  86.3836  49.6744 0017834  73.9809 345.1929 14.55406947884415"}}, "geometry": {"type": "Point", "coordinates": [44.64415248494917, -52.57775042273243]}}, {"type": "Feature", "properties": {"norad_id": 33960, "name": "IRIDIUM 33 DEB", "group": "iridium-33-debris", "lat": 53.62284399615755, "lon": 99.63742537309736, "alt_km": 605.9364516220803, "timestamp": "2025-12-22T20:43:46.233322+00:00", "meta": {"OBJECT_NAME": "IRIDIUM 33 DEB", "OBJECT_ID": "1997-051BV", "EPOCH": "2025-12-22T06:09:23.968224", "MEAN_MOTION": 14.8563682, "ECCENTRICITY": 0.00072716, "INCLINATION": 86.2544, "RA_OF_ASC_NODE": 285.0259, "ARG_OF_PERICENTER": 45.0097, "MEAN_ANOMALY": 75.6646, "EPHEMERIS_TYPE": 0, "CLASSIFICATION_TYPE": "U", "NORAD_CAT_ID": 33960, "ELEMENT_SET_NO": 999, "REV_AT_EPOCH": 89008, "BSTAR": 0.0034646151, "MEAN_MOTION_DOT": 0.00030136, "MEAN_MOTION_DDOT": 0}, "tle": {"line1": "1 33960U 97051BV  25356.25652741  .00030136  00000+0  34646-2 0  9993", "line2": "2 33960  86.2544 285.0259 0007271  45.0097  75.6646 14.85636820890087"}}, "geometry": {"type": "Point", "coordinates": [99.63742537309736, 53.62284399615755]}}, {"type": "Feature", "properties": {"norad_id": 33966, "name": "IRIDIUM 33 DEB", "group": "iridium-33-debris", "lat": -44.07332101930172, "lon": -134.8148024736746, "alt_km": 731.3294861794575, "timestamp": "2025-12-22T20:43:46.233333+00:00", "meta": {"OBJECT_NAME": "IRIDIUM 33 DEB", "OBJECT_ID": "1997-051CB", "EPOCH": "2025-12-22T13:37:15.049920", "MEAN_MOTION": 14.49630108, "ECCENTRICITY": 0.00085054, "INCLINATION": 86.3912, "RA_OF_ASC_NODE": 41.8093, "ARG_OF_PERICENTER": 157.4604, "MEAN_ANOMALY": 321.7914, "EPHEMERIS_TYPE": 0, "CLASSIFICATION_TYPE": "U", "NORAD_CAT_ID": 33966, "ELEMENT_SET_NO": 999, "REV_AT_EPOCH": 88584, "BSTAR": 0.00043607238, "MEAN_MOTION_DOT": 1.695e-05, "MEAN_MOTION_DDOT": 0}, "tle": {"line1": "1 33966U 97051CB  25356.56753530  .00001695  00000+0  43607-3 0  9997", "line2": "2 33966  86.3912  41.8093 0008505 157.4604 321.7914 14.49630108885844"}}, "geometry": {"type": "Point", "coordinates": [-134.8148024736746, -44.07332101930172]}}, {"type": "Feature", "properties": {"norad_id": 34071, "name": "IRIDIUM 33 DEB", "group": "iridium-33-debris", "lat": -73.90090124371143, "lon": 0.6313922116841667, "alt_km": 741.0153566279896, "timestamp": "2025-12-22T20:43:46.233343+00:00", "meta": {"OBJECT_NAME": "IRIDIUM 33 DEB", "OBJECT_ID": "1997-051CE", "EPOCH": "2025-12-22T12:47:17.503872", "MEAN_MOTION": 14.49505346, "ECCENTRICITY": 0.00099075, "INCLINATION": 86.3448, "RA_OF_ASC_NODE": 13.5713, "ARG_OF_PERICENTER": 81.226, "MEAN_ANOMALY": 279.0066, "EPHEMERIS_TYPE": 0, "CLASSIFICATION_TYPE": "U", "NORAD_CAT_ID": 34071, "ELEMENT_SET_NO": 999, "REV_AT_EPOCH": 88476, "BSTAR": 0.000513667, "MEAN_MOTION_DOT": 1.989e-05, "MEAN_MOTION_DDOT": 0}, "tle": {"line1": "1 34071U 97051CE  25356.53284148  .00001989  00000+0  51367-3 0  9994", "line2": "2 34071  86.3448  13.5713 0009907  81.2260 279.0066 14.49505346884768"}}, "geometry": {"type": "Point", "coordinates": [0.6313922116841667, -73.90090124371143]}}]}